FENGYUN 1C DEB          
1 38820U 99025EVL 17331.39152986  .00000681  00000-0  53220-3 0  9994
2 38820  98.2299 171.8870 0287074 226.0092 259.6750 13.77440570266290
